     2.10           NAVIGATION                              RINEX VERSION / TYPE
fic2rin                                 06/12/2008 01:15:04 PGM / RUN BY / DATE
                                                            END OF HEADER
10 08  6 11 22  0  0.0 -.217277556658D-05 -.341060513165D-12  .000000000000D+00
     .800000000000D+02  .568750000000D+01  .447197198987D-08  .293735173763D+00
     .378116965294D-06  .799029751215D-02  .462122261524D-05  .515365222359D+04
     .338400000000D+06  .335276126862D-07  .658428505779D+00  .128522515297D-06
     .963631147654D+00  .292468750000D+03  .560786187796D+00 -.831391773662D-08
    -.307155651409D-10  .100000000000D+01  .148300000000D+04  .000000000000D+00
     .240000000000D+01  .000000000000D+00 -.232830643654D-08  .800000000000D+02
     .331206000000D+06  .400000000000D+01
12 08  6 11 22  0  0.0 -.358609948307D-03  .341060513165D-12  .000000000000D+00
     .140000000000D+02 -.307500000000D+02  .472233956154D-08 -.215444104699D+01
    -.166706740856D-05  .341431121342D-02  .647641718388D-05  .515359051704D+04
     .338400000000D+06 -.912696123123D-07 -.250619403327D+01  .763684511185D-07
     .964083135212D+00  .254593750000D+03 -.936482814257D+00 -.807676500111D-08
    -.131434046184D-09  .100000000000D+01  .148300000000D+04  .000000000000D+00
     .240000000000D+01  .000000000000D+00 -.116415321827D-07  .140000000000D+02
     .331206000000D+06  .400000000000D+01
13 08  6 11 22  0  0.0  .259386841208D-03  .159161572810D-11  .000000000000D+00
     .540000000000D+02 -.416250000000D+02  .373408411102D-08 -.225285639137D-01
    -.244937837124D-05  .382580398582D-02  .838190317154D-05  .515362312698D+04
     .338400000000D+06 -.465661287308D-07  .172798254710D+01  .167638063431D-07
     .995278739732D+00  .239406250000D+03  .147013893904D+01 -.772960768347D-08
     .471448209139D-10  .100000000000D+01  .148300000000D+04  .000000000000D+00
     .240000000000D+01  .000000000000D+00 -.111758708954D-07  .540000000000D+02
     .331206000000D+06  .400000000000D+01
14 08  6 11 22  0  0.0 -.256523489952D-03  .432009983342D-11  .000000000000D+00
     .540000000000D+02 -.377187500000D+02  .384408869315D-08 -.259149749599D+00
    -.196322798729D-05  .374705833383D-02  .900216400623D-05  .515370768929D+04
     .338400000000D+06 -.260770320892D-07  .171057983601D+01  .372529029846D-07
     .989012565669D+00  .224187500000D+03 -.217081155965D+01 -.781175396234D-08
     .232152527227D-10  .100000000000D+01  .148300000000D+04  .000000000000D+00
     .340000000000D+01  .000000000000D+00 -.884756445885D-08  .540000000000D+02
     .331206000000D+06  .400000000000D+01
15 08  6 11 22  0  0.0 -.125181861222D-03 -.602540239925D-11  .000000000000D+00
     .450000000000D+02 -.331875000000D+02  .455090384913D-08  .659964661926D+00
    -.173225998878D-05  .637034419924D-03  .778026878834D-05  .515366643143D+04
     .338400000000D+06 -.223517417908D-07  .166902340678D+01 -.558793544769D-08
     .957398246200D+00  .224781250000D+03 -.125522003042D+01 -.813712465819D-08
     .389301930274D-10  .100000000000D+01  .148300000000D+04  .000000000000D+00
     .240000000000D+01  .000000000000D+00 -.977888703346D-08  .450000000000D+02
     .331206000000D+06  .400000000000D+01
17 08  6 11 22  0  0.0  .386526808143D-04 -.113686837722D-12  .000000000000D+00
     .480000000000D+02 -.100312500000D+02  .456233289662D-08  .328971590621D+00
    -.528991222382D-06  .359950482380D-02  .942312180996D-05  .515376466370D+04
     .338400000000D+06  .596046447754D-07 -.144863710224D+01  .726431608200D-07
     .959213954289D+00  .195875000000D+03 -.276715375486D+01 -.802461997192D-08
    -.315727437029D-09  .100000000000D+01  .148300000000D+04  .000000000000D+00
     .240000000000D+01  .000000000000D+00 -.102445483208D-07  .480000000000D+02
     .331206000000D+06  .400000000000D+01
18 08  6 11 22  0  0.0 -.168439000845D-03  .409272615798D-11  .000000000000D+00
     .620000000000D+02  .593750000000D+00  .490591863692D-08  .174325885848D+01
     .521540641785D-07  .939655920956D-02  .448152422905D-05  .515369281006D+04
     .338400000000D+06 -.244006514549D-06  .669133302031D+00  .875443220139D-07
     .947715061233D+00  .283468750000D+03 -.250771424654D+01 -.851392606777D-08
    -.960754304987D-10  .100000000000D+01  .148300000000D+04  .000000000000D+00
     .240000000000D+01  .000000000000D+00 -.107102096081D-07  .620000000000D+02
     .331206000000D+06  .400000000000D+01
19 08  6 11 22  0  0.0  .317892991006D-04  .682121026330D-12  .000000000000D+00
     .680000000000D+02 -.793750000000D+01  .445947146917D-08 -.511654764360D-01
    -.482425093651D-06  .475677056238D-02  .106412917376D-04  .515369572449D+04
     .338400000000D+06  .782310962677D-07 -.139155484339D+01 -.121071934700D-06
     .957011219519D+00  .176218750000D+03 -.598571419028D+00 -.798997567170D-08
    -.385373195198D-09  .100000000000D+01  .148300000000D+04  .000000000000D+00
     .240000000000D+01  .000000000000D+00 -.144354999065D-07  .680000000000D+02
     .331206000000D+06  .400000000000D+01
20 08  6 11 22  0  0.0  .112336594611D-03 -.795807864051D-12  .000000000000D+00
     .990000000000D+02  .868750000000D+01  .488627496154D-08  .177259702225D+01
     .467523932457D-06  .367848284077D-02  .387057662010D-05  .515355088234D+04
     .338400000000D+06  .204890966415D-07  .615535665771D+00 -.596046447754D-07
     .947257194207D+00  .296593750000D+03  .134676732112D+01 -.847749597888D-08
     .114290474943D-10  .100000000000D+01  .148300000000D+04  .000000000000D+00
     .240000000000D+01  .000000000000D+00 -.651925802231D-08  .990000000000D+02
     .331206000000D+06  .400000000000D+01
21 08  6 11 22  0  0.0  .615464523435D-04 -.113686837722D-11  .000000000000D+00
     .560000000000D+02  .798437500000D+02  .487234580990D-08  .292787385128D+01
     .401027500629D-05  .140165091725D-01  .744126737118D-05  .515371754837D+04
     .338400000000D+06 -.596046447754D-07 -.388719476389D+00 -.141561031342D-06
     .936354345180D+00  .223000000000D+03 -.271553744071D+01 -.813712465819D-08
     .129291099779D-09  .100000000000D+01  .148300000000D+04  .000000000000D+00
     .240000000000D+01  .000000000000D+00 -.116415321827D-07  .560000000000D+02
     .331206000000D+06  .400000000000D+01
23 08  6 11 22  0  0.0  .358828809112D-03  .204636307899D-11  .000000000000D+00
     .350000000000D+02 -.464375000000D+02  .421446126351D-08 -.734295833820D+00
    -.262260437012D-05  .561117718462D-02  .821799039841D-05  .515372867203D+04
     .338400000000D+06  .745058059692D-08  .168415604205D+01 -.949949026108D-07
     .971146849787D+00  .223843750000D+03  .274512126207D+01 -.799961893052D-08
     .760745973838D-10  .100000000000D+01  .148300000000D+04  .000000000000D+00
     .240000000000D+01  .000000000000D+00 -.200234353542D-07  .350000000000D+02
     .331206000000D+06  .400000000000D+01
24 08  6 11 22  0  0.0  .101086683571D-03  .295585778076D-11  .000000000000D+00
     .850000000000D+02  .725937500000D+02  .451554523344D-08  .155322643782D+01
     .380910933018D-05  .769515242428D-02  .711530447006D-05  .515367223549D+04
     .338400000000D+06  .199303030968D-06 -.362515496111D+00  .186264514923D-06
     .953027528279D+00  .237187500000D+03 -.728671920293D+00 -.803426323074D-08
     .992898501065D-10  .100000000000D+01  .148300000000D+04  .000000000000D+00
     .340000000000D+01  .000000000000D+00 -.139698386192D-08  .850000000000D+02
     .331206000000D+06  .400000000000D+01
25 08  6 11 22  0  0.0 -.177993904799D-03  .826503310236D-10  .000000000000D+00
     .490000000000D+02 -.868750000000D+01  .451697386438D-08  .206237741203D+01
    -.441446900368D-06  .117281025741D-01  .803731381893D-05  .515369911194D+04
     .338400000000D+06  .156462192535D-06  .263301515789D+01 -.763684511185D-07
     .965205206545D+00  .226062500000D+03 -.124670531615D+01 -.782746890264D-08
     .243581574722D-09  .100000000000D+01  .148300000000D+04  .000000000000D+00
     .240000000000D+01  .000000000000D+00 -.745058059692D-08  .490000000000D+02
     .331206000000D+06  .400000000000D+01
26 08  6 11 22  0  0.0  .272088218480D-03  .750333128963D-11  .000000000000D+00
     .930000000000D+02 -.275937500000D+02  .375301347093D-08 -.137169965840D+01
    -.122003257275D-05  .191855696030D-01  .780634582043D-05  .515361014175D+04
     .338400000000D+06  .422820448875D-06  .172661304366D+01  .135973095894D-06
     .993222422581D+00  .238968750000D+03  .938516510305D+00 -.763781814578D-08
     .992898501065D-10  .100000000000D+01  .148300000000D+04  .000000000000D+00
     .340000000000D+01  .000000000000D+00 -.605359673500D-08  .930000000000D+02
     .331206000000D+06  .400000000000D+01
27 08  6 11 22  0  0.0  .194916501641D-03  .272848410532D-11  .000000000000D+00
     .135000000000D+03 -.981250000000D+01  .438196824085D-08  .208656794012D+01
    -.696629285812D-06  .210814274615D-01  .804290175438D-05  .515376466942D+04
     .338400000000D+06  .225380063057D-06  .266780529988D+01 -.402331352234D-06
     .969810266387D+00  .227718750000D+03 -.170542529536D+01 -.767317676147D-08
     .324299222650D-09  .100000000000D+01  .148300000000D+04  .000000000000D+00
     .340000000000D+01  .000000000000D+00 -.419095158577D-08  .135000000000D+03
     .331206000000D+06  .400000000000D+01
28 08  6 11 22  0  0.0 -.199563801289D-04 -.454747350886D-12  .000000000000D+00
     .240000000000D+02 -.317187500000D+02  .490663295239D-08  .807427120306D+00
    -.147894024849D-05  .137902376009D-01  .626780092716D-05  .515371131516D+04
     .338400000000D+06 -.113621354103D-06 -.248116997835D+01  .987201929092D-07
     .963900298248D+00  .265500000000D+03 -.209602275919D+01 -.844963767561D-08
    -.218580533328D-09  .100000000000D+01  .148300000000D+04  .000000000000D+00
     .240000000000D+01  .000000000000D+00 -.102445483208D-07  .240000000000D+02
     .331206000000D+06  .400000000000D+01
